[{"OBJECT_NAME":"STARLINK-35266","OBJECT_ID":"2025-218P","EPOCH":"2026-03-09T12:48:57.104064","MEAN_MOTION":15.05652271,"ECCENTRICITY":0.00025424,"INCLINATION":97.6023,"RA_OF_ASC_NODE":292.76,"ARG_OF_PERICENTER":85.6067,"MEAN_ANOMALY":274.545,"EPHEMERIS_TYPE":0,"CLASSIFICATION_TYPE":"U","NORAD_CAT_ID":65804,"ELEMENT_SET_NO":999,"REV_AT_EPOCH":2494,"BSTAR":0.00029068509,"MEAN_MOTION_DOT":4.136e-5,"MEAN_MOTION_DDOT":0},{"OBJECT_NAME":"COSMOS 2251 DEB","OBJECT_ID":"1993-036BYJ","EPOCH":"2026-02-27T08:25:05.077344","MEAN_MOTION":15.02778291,"ECCENTRICITY":0.0017194,"INCLINATION":74.0208,"RA_OF_ASC_NODE":84.7822,"ARG_OF_PERICENTER":181.9976,"MEAN_ANOMALY":194.0424,"EPHEMERIS_TYPE":0,"CLASSIFICATION_TYPE":"U","NORAD_CAT_ID":47116,"ELEMENT_SET_NO":999,"REV_AT_EPOCH":60660,"BSTAR":0.0017596726,"MEAN_MOTION_DOT":0.00023658,"MEAN_MOTION_DDOT":0}]
